BEIDOU-2 IGSO-1 (C06)   
1 36828U 10036A   25033.78933487 -.00000108  00000+0  00000+0 0  9997
2 36828  54.2691 167.4777 0044515 207.8404 148.9710  1.00263293 53081
BEIDOU-2 G4 (C04)       
1 37210U 10057A   25034.59239106 -.00000109  00000+0  00000+0 0  9994
2 37210   2.4086  70.4242 0008880 199.2004 237.5582  1.00272431 52293
BEIDOU-2 IGSO-2 (C07)   
1 37256U 10068A   25034.59621638 -.00000183  00000+0  00000+0 0  9993
2 37256  48.4496 277.9888 0038846 213.3550 325.5730  1.00278268 51798
BEIDOU-2 IGSO-3 (C08)   
1 37384U 11013A   25023.72627113 -.00000144  00000+0  00000+0 0  9990
2 37384  61.6727  44.9876 0029519 185.5207 258.4470  1.00254270 50554
BEIDOU-2 IGSO-4 (C09)   
1 37763U 11038A   25033.83517102 -.00000021  00000+0  00000+0 0  9991
2 37763  54.5740 170.1355 0133591 228.8066 129.5773  1.00258891 49639
BEIDOU-2 IGSO-5 (C10)   
1 37948U 11073A   25033.74855640 -.00000126  00000+0  00000+0 0  9993
2 37948  48.5874 277.6986 0100922 220.2779   0.8514  1.00279574 48125
BEIDOU-2 G5 (C05)       
1 38091U 12008A   25034.55240095  .00000061  00000+0  00000+0 0  9991
2 38091   2.3299  71.2310 0013650 240.6167  79.6772  1.00269462 47361
BEIDOU-2 M3 (C11)       
1 38250U 12018A   25034.35868545 -.00000076  00000+0  00000+0 0  9990
2 38250  56.1709 321.6312 0023433 272.8066  86.9533  1.86233511 86651
BEIDOU-2 M4 (C12)       
1 38251U 12018B   25034.28973197 -.00000075  00000+0  00000+0 0  9992
2 38251  56.0754 320.8876 0014448 278.4795  81.3859  1.86231973 86654
BEIDOU-2 M6 (C14)       
1 38775U 12050B   25034.53656816 -.00000024  00000+0  00000+0 0  9997
2 38775  56.1044  79.4403 0013045 334.0361  25.9670  1.86230882 84023
BEIDOU-2 G6 (C02)       
1 38953U 12059A   25034.55744001 -.00000172  00000+0  00000+0 0  9994
2 38953   3.1505  78.6122 0009351 291.8697  48.1519  1.00273102 44901
BEIDOU-3S IGSO-1S (C31) 
1 40549U 15019A   25034.56761170 -.00000158  00000+0  00000+0 0  9998
2 40549  50.1369 301.4468 0033833 196.5491 293.2367  1.00252471 36079
BEIDOU-3S M2S (C58)     
1 40748U 15037A   25033.41734390 -.00000068  00000+0  00000+0 0  9996
2 40748  55.3012 319.1929 0010741 270.5479  89.3619  1.86228947 64814
BEIDOU-3S M1S (C57)     
1 40749U 15037B   25034.22586862 -.00000074  00000+0  00000+0 0  9993
2 40749  55.2972 319.1587 0004419 359.8070   0.2240  1.86253514 64834
BEIDOU-3S IGSO-2S (C56) 
1 40938U 15053A   25034.08011064 -.00000086  00000+0  00000+0 0  9995
2 40938  49.9939 264.6963 0052009 186.9169 163.9369  1.00253049 34346
BEIDOU-2 IGSO-6 (C13)   
1 41434U 16021A   25034.48819628 -.00000144  00000+0  00000+0 0  9994
2 41434  59.5196  43.0161 0054678 229.2903 133.9590  1.00269202 32484
BEIDOU-2 G7 (C03)       
1 41586U 16037A   25034.59953721 -.00000350  00000+0  00000+0 0  9993
2 41586   1.9345  68.1197 0008618 342.7861  49.3870  1.00265834  1892
BEIDOU-3 M1 (C19)       
1 43001U 17069A   25033.22846253 -.00000011  00000+0  00000+0 0  9997
2 43001  56.2525  79.6102 0011385 299.4358  60.5257  1.86230994 49299
BEIDOU-3 M2 (C20)       
1 43002U 17069B   25034.24005810 -.00000021  00000+0  00000+0 0  9998
2 43002  56.2528  79.6127 0008651 319.4870  40.5186  1.86230820 49303
BEIDOU-3 M7 (C27)       
1 43107U 18003A   25033.45006501 -.00000070  00000+0  00000+0 0  9997
2 43107  54.7598 319.6814 0003846  55.9354 304.1329  1.86232186 48044
BEIDOU-3 M8 (C28)       
1 43108U 18003B   25032.31848988 -.00000063  00000+0  00000+0 0  9997
2 43108  54.7537 319.7050 0004155 282.0245  77.9615  1.86230718 48038
BEIDOU-3 M4 (C22)       
1 43207U 18018A   25034.37050883 -.00000023  00000+0  00000+0 0  9996
2 43207  56.2124  79.6533 0005561 342.0330  18.0167  1.86230895 47458
BEIDOU-3 M3 (C21)       
1 43208U 18018B   25034.43705546 -.00000023  00000+0  00000+0 0  9997
2 43208  56.2119  79.6553 0008851 309.0000  50.9903  1.86231056 47450
BEIDOU-3 M9 (C29)       
1 43245U 18029A   25034.11926120 -.00000072  00000+0  00000+0 0  9992
2 43245  54.6352 317.3435 0001498 312.8362  47.1850  1.86232264 46603
BEIDOU-3 M10 (C30)      
1 43246U 18029B   25034.04933972 -.00000071  00000+0  00000+0 0  9997
2 43246  54.6328 317.3733 0004935   3.7173 356.3203  1.86228748 46589
BEIDOU-2 IGSO-7 (C16)   
1 43539U 18057A   25019.31863137 -.00000081  00000+0  00000+0 0  9992
2 43539  55.1601 167.5020 0079956 232.2573 302.6513  1.00246108 23989
BEIDOU-3 M5 (C23)       
1 43581U 18062A   25033.20113743  .00000087  00000+0  00000+0 0  9995
2 43581  54.1123 199.3035 0001386 343.9944  15.9693  1.86228413 44324
BEIDOU-3 M6 (C24)       
1 43582U 18062B   25031.99186405  .00000080  00000+0  00000+0 0  9998
2 43582  54.1117 199.3340 0007001  46.0242 314.0009  1.86229312 44300
BEIDOU-3 M12 (C26)      
1 43602U 18067A   25034.07426219  .00000091  00000+0  00000+0 0  9990
2 43602  54.2037 197.9658 0008455  37.2254 322.8019  1.86227638 43823
BEIDOU-3 M11 (C25)      
1 43603U 18067B   25033.13400804  .00000086  00000+0  00000+0 0  9993
2 43603  54.2011 197.9624 0005026  33.8929 326.1058  1.86227139 43838
BEIDOU-3 M13 (C32)      
1 43622U 18072A   25033.09427687 -.00000010  00000+0  00000+0 0  9991
2 43622  56.1833  79.2206 0008057 295.6707  64.3217  1.86230963 43342
BEIDOU-3 M14 (C33)      
1 43623U 18072B   25034.57060509 -.00000025  00000+0  00000+0 0  9998
2 43623  56.1866  79.1648 0005385 316.3910  43.6347  1.86230937 43363
BEIDOU-3 M16 (C35)      
1 43647U 18078A   25034.19468330 -.00000072  00000+0  00000+0 0  9994
2 43647  54.5316 317.4202 0007995  15.9105 344.1480  1.86232148 42869
BEIDOU-3 M15 (C34)      
1 43648U 18078B   25034.32388320 -.00000073  00000+0  00000+0 0  9991
2 43648  54.5273 317.4177 0004845  18.9853 341.0659  1.86231947 42889
BEIDOU-3 G1 (C59)       
1 43683U 18085A   25034.58198507 -.00000275  00000+0  00000+0 0  9996
2 43683   2.7681 101.7781 0001246  12.1410   9.6512  1.00272361 23063
BEIDOU-3 M17 (C36)      
1 43706U 18093A   25033.94038144  .00000091  00000+0  00000+0 0  9995
2 43706  54.1951 199.2338 0006122 296.2265  63.6803  1.86228075 42242
BEIDOU-3 M18 (C37)      
1 43707U 18093B   25033.26688422  .00000087  00000+0  00000+0 0  9996
2 43707  54.1961 199.2485 0005743 342.1052  17.8427  1.86229568 42229
BEIDOU-3 IGSO-1 (C38)   
1 44204U 19023A   25034.56561749 -.00000200  00000+0  00000+0 0  9997
2 44204  57.9842  42.8037 0023149 226.2409 187.7176  1.00284614  2217
BEIDOU-2 G8 (C01)       
1 44231U 19027A   25034.63016782 -.00000246  00000+0  00000+0 0  9991
2 44231   2.0539  74.9049 0004672 217.6910 212.6976  1.00266423 21081
BEIDOU-3 IGSO-2 (C39)   
1 44337U 19035A   25033.78462627 -.00000123  00000+0  00000+0 0  9999
2 44337  55.2007 163.2463 0036169 199.0315 171.4208  1.00267245 20664
BEIDOU-3 M24 (C46)      
1 44542U 19061A   25034.41112363  .00000094  00000+0  00000+0 0  9992
2 44542  54.4227 199.5500 0008661  19.3841 340.6200  1.86228975 36508
BEIDOU-3 M23 (C45)      
1 44543U 19061B   25034.49436571  .00000094  00000+0  00000+0 0  9991
2 44543  54.4215 199.5158 0005233  18.3634 310.0976  1.86229056 36508
BEIDOU-3 IGSO-3 (C40)   
1 44709U 19073A   25034.09253379 -.00000173  00000+0  00000+0 0  9996
2 44709  55.6537 286.2717 0041140 183.0296 177.0379  1.00286582 19454
BEIDOU-3 M22 (C44)      
1 44793U 19078A   25034.25496094 -.00000073  00000+0  00000+0 0  9994
2 44793  54.3788 317.3219 0006823  20.7067 339.3543  1.86231810 35357
BEIDOU-3 M21 (C43)      
1 44794U 19078B   25032.77446971 -.00000063  00000+0  00000+0 0  9998
2 44794  54.3536 317.3446 0004980  11.7667 348.2807  1.86227526 35338
BEIDOU-3 M19 (C41)      
1 44864U 19090A   25034.09523666 -.00000020  00000+0  00000+0 0  9997
2 44864  56.1184  79.3456 0019485 282.8108  75.2209  1.86231259 34934
BEIDOU-3 M20 (C42)      
1 44865U 19090B   25034.57202035 -.00000025  00000+0  00000+0 0  9990
2 44865  56.1204  79.3633 0016939 294.5283 112.8515  1.86231236 34933
BEIDOU-3 G2 (C60)       
1 45344U 20017A   25034.55665809 -.00000137  00000+0  00000+0 0  9998
2 45344   2.6467  37.2715 0003146 274.9071 102.2017  1.00270082 18266
BEIDOU-3 G3 (C61)       
1 45807U 20040A   25034.59953727 -.00000350  00000+0  00000+0 0  9998
2 45807   1.2496  60.0273 0003111 306.9740  93.2495  1.00277055 17075
BEIDOU-3 G4 (C62)       
1 56564U 23066A   25034.59267252 -.00000106  00000+0  00000+0 0  9991
2 56564   1.5486 289.7269 0002186 258.2243 319.4200  1.00271805  6399
BEIDOU-3 M28 (C50)      
1 58654U 23207A   25034.46732821 -.00000026  00000+0  00000+0 0  9996
2 58654  55.3054  79.1881 0004267 280.1835  79.8364  1.86231905  7551
BEIDOU-3 M26 (C48)      
1 58655U 23207B   25034.26685841 -.00000024  00000+0  00000+0 0  9992
2 58655  55.3074  79.1810 0005244 266.5904  93.4186  1.86231343  7535
